#dP2024  7 25  0  0  0.00000000      96 __u+U IGS20 FIT  IAC
## 2324 345600.00000000   900.00000000 60516 0.0000000000000
+   54   G02G03G04G05G06G07G08G09G10G11G12G13G14G15G16G17G18
+        G19G20G21G22G23G24G25G26G27G28G29G30G31G32R01R02R03
+        R04R05R07R08R09R11R12R13R14R15R16R17R18R19R20R21R22
+        R24R25R26  0  0  0  0  0  0  0  0  0  0  0  0  0  0
+          0  0  0  0  0  0  0  0  0  0  0  0  0  0  0  0  0
++         5  6  4  6  5  6  7  6  6  5  6  7  6  8  6  7  7
++         6  5  6  6  6  7  6  6  7  6  8  6  6  6  7  6  7
++         6  7  6  7  6  6  7  5  6  7  5  5  6  7  6  7  7
++         7  7  7  0  0  0  0  0  0  0  0  0  0  0  0  0  0
++         0  0  0  0  0  0  0  0  0  0  0  0  0  0  0  0  0
%c M  cc GPS ccc cccc cccc cccc cccc ccccc ccccc ccccc ccccc
%c cc cc ccc ccc cccc cccc cccc cccc ccccc ccccc ccccc ccccc
%f  0.0000000  0.000000000  0.00000000000  0.000000000000000
%f  0.0000000  0.000000000  0.00000000000  0.000000000000000
%i    0    0    0    0      0      0      0      0         0
%i    0    0    0    0      0      0      0      0         0
/* INFORMATION & ANALYSIS CENTER (IAC)      ULTRA-RAPID DATA
/* S/V CLOCKS ARE ALIGNED TO GNSS TIME                      
/* G:C1WC2W R:C1PC2P E:C1XC5X C:C2IC6I J:C1CC2S             
/* PCV:IGS20_2317 OL/AL:FES2004  NONE     YN ORB:CoN CLK:CoN
*  2024 07 25  9 30  0.00000000
PG02  14041.743920  -8960.681946  21092.827409   -392.276391
PG03  23078.864860 -13000.534140   -797.060124    472.815067
PG04  17578.947482  -4477.224899 -19433.457521    410.821042
PG05 -22417.018676   2163.096276 -14326.063835   -180.931333
PG06  -5405.109316 -24032.479909  -9730.704215    140.446174
PG07   6196.290311 -24202.021691  -7774.711176    -63.293809
PG08  23805.838734   4164.716999  11379.797267    288.891130
PG09   6625.646393 -13809.631386 -21783.195213    287.046117
PG10   1818.932072  15405.421585  21717.725754    -75.271850
PG11 -12513.337426 -13066.565888 -19442.695437   -710.849546
PG12 -24510.215503   9996.638489   1557.160790   -525.063507
PG13 -22296.840497 -13411.866860   5709.597271    666.757326
PG14   2424.120451 -17401.569256  19898.227260    456.919832
PG15 -24013.722205  -1286.226265  10962.531513    185.006011
PG16  21030.140030   3391.675800 -16470.638505   -227.051503
PG17  -7399.515406 -19374.318626  16918.361807    670.278653
PG18  -6321.927270  24497.749630  -7700.898097   -640.050284
PG19 -15454.365277 -19783.012296   9122.671423    515.327042
PG20 -16237.289211  -5353.972083 -20222.054335    372.392978
PG21  15271.592205  -1980.329590  22022.761309    106.799064
PG22  -5537.761828 -14399.274291  22041.737004    -43.668760
PG23 -10948.561899  18417.752548  15579.599900    281.876753
PG24 -14727.784149   6838.567519  20526.967115   -484.436519
PG25 -18624.150715  17120.017046  -7982.478002    498.822260
PG26  11085.354096  11704.289608 -21288.071091    113.519419
PG27  23390.550062  12958.729917   1370.375564    -31.878277
PG28   5248.254578  24994.857435  -7300.555393   -345.610206
PG29 -10878.361526  10583.748823 -21850.761420   -587.767974
PG30   -993.305877 -26309.370472   2275.881487   -351.802099
PG31  11213.645956  17095.947665 -16962.046292   -226.487283
PG32  10530.483943  18997.079794  15635.576150   -610.223426
PR01 -25265.668611  -2765.040493   2248.860279     92.447290
PR02 -17878.486167   4862.170897  17540.841344    -23.844354
PR03   -353.701725  10923.355134  23093.834303    104.390934
PR04  16720.392393  10747.821235  16021.638839    246.775170
PR05  25013.750755   5049.312238    349.796402    135.037909
PR07   -283.756632 -10984.111054 -22979.360537     87.422163
PR08 -17008.413289 -10588.824776 -15709.286475     -6.158098
PR09  17432.331504 -17771.450017  -5333.199304    199.635408
PR11  -2635.899177 -13050.719392  21768.306101     17.089532
PR12 -15650.200932   3885.717603  19791.959934     42.860601
PR13 -18114.257487  16090.953996   7969.703707    -49.786630
PR14  -9636.024333  20581.462967 -11590.729955     26.726099
PR15   3936.513958  11934.419223 -22173.442567     77.538038
PR16  15424.834260  -3850.364645 -19918.137268     27.681466
PR17   2975.471730  23008.721886 -10542.393866    107.697895
PR18  10430.630307  22550.328399   5880.074049    153.702138
PR19  12409.155601  12612.337166  18364.923011   -285.128586
PR20   7563.009324  -9559.244808  22406.709846   -116.683662
PR21  -2569.897718 -22899.769212  10974.168375   -120.430460
PR22 -10355.424268 -22245.327082  -6936.292128     82.286815
PR24  -7291.288648  10577.303658 -22018.969908    -65.118720
PR25  -2146.022904 -23307.369082  10176.124152    -98.065201
PR26 -15911.634262 -10772.812278 -16770.239170      6.141142
*  2024 07 25  9 45  0.00000000
PG02  14320.916868  -6617.429106  21801.982794   -392.269800
PG03  23095.901503 -12785.179804   2112.210896    472.829292
PG04  19336.567310  -3256.094219 -17964.572951    410.827942
PG05 -21056.634387   1096.083489 -16383.061998   -180.932381
PG06  -5228.702226 -24997.641856  -7029.747022    140.425144
PG07   6506.130623 -23085.002288 -10364.891564    -63.287448
PG08  24734.827401   4898.315161   8893.484407    288.905308
PG09   8802.221302 -12639.111722 -21727.604211    287.059794
PG10   -280.846081  16558.413955  20892.120379    -75.280947
PG11 -12306.652133 -15202.061272 -17973.874274   -710.855293
PG12 -24291.687949   9601.643611   4390.704215   -525.066255
PG13 -22578.286814 -13886.663614   2901.032958    666.759412
PG14   4424.211788 -18348.491918  18642.120146    456.927802
PG15 -25011.755605  -1972.694417   8477.241069    185.009939
PG16  19357.335179   4323.150237 -18206.624599   -227.041795
PG17  -5680.364992 -18416.898192  18623.697473    670.271774
PG18  -6522.166993  23457.068827 -10339.052763   -640.053625
PG19 -14375.437716 -19235.647974  11626.235657    515.331777
PG20 -14485.690613  -6967.737418 -21054.839541    372.392966
PG21  15547.518817    432.623745  22004.951430    106.797387
PG22  -3346.245952 -15422.072500  21811.239850    -43.672715
PG23 -12441.783646  19157.013900  13393.472168    281.884770
PG24 -15058.614159   4380.659004  20982.088029   -484.437693
PG25 -19393.490642  17252.887786  -5271.552946    498.822580
PG26   9103.810686  13092.916227 -21386.041152    113.513052
PG27  23305.672114  13164.452905  -1462.236207    -31.878905
PG28   5030.424824  25680.860831  -4551.805634   -345.624192
PG29 -12901.082995   9183.849064 -21388.470980   -587.766182
PG30   -645.756927 -26396.047873   -541.597424   -351.796197
PG31  10984.606756  18902.420610 -15027.451629   -226.486998
PG32   8840.308375  18225.945551  17496.682618   -610.221391
PR01 -25362.396732  -2626.426694   -961.367891     92.448735
PR02 -19892.292030   4663.665870  15269.095883    -23.844278
PR03  -3161.242268  10507.132378  23068.411256    104.391136
PR04  14658.656858  10296.502495  18192.192240    246.776978
PR05  24805.334144   4831.031891   3564.643674    135.039132
PR07   2535.120328 -10561.834232 -23043.169231     87.422423
PR08 -14959.925097 -10172.371141 -17909.571903     -6.158335
PR09  16862.874041 -17134.946665  -8375.034603    199.637813
PR11  -1087.012812 -15146.397710  20504.326212     17.088212
PR12 -14047.486218   1934.977428  21231.843477     42.860887
PR13 -17314.010360  15237.089122  10889.366546    -49.787346
PR14 -10318.680800  21640.125915  -8727.871440     26.726567
PR15   2317.514925  14066.708422 -21129.104382     77.537110
PR16  13809.057654  -1875.442567 -21339.146693     27.682270
PR17   2590.002604  21575.145296 -13314.221916    107.700953
PR18  10808.058197  22972.682890   2699.492579    153.703565
PR19  13236.573390  14588.307911  16195.304947   -285.129804
PR20   8420.665967  -6882.690551  23075.569829   -116.684670
PR21  -2191.521546 -21412.866119  13712.421844   -120.433068
PR22 -10710.737737 -22827.545791  -3811.879446     82.280422
PR24  -8263.456508   7986.699314 -22756.867307    -65.120020
PR25  -1803.414615 -21917.296694  12951.288906    -98.066876
PR26 -13749.285920 -10356.797283 -18815.512459      6.143176
EOF
